[{"OBJECT_NAME":"ION-MK01","OBJECT_ID":"2020-061C","EPOCH":"2026-03-09T17:36:50.178240","MEAN_MOTION":15.87700934,"ECCENTRICITY":0.00022654,"INCLINATION":97.1954,"RA_OF_ASC_NODE":147.6319,"ARG_OF_PERICENTER":234.6366,"MEAN_ANOMALY":125.4695,"EPHEMERIS_TYPE":0,"CLASSIFICATION_TYPE":"U","NORAD_CAT_ID":46274,"ELEMENT_SET_NO":999,"REV_AT_EPOCH":30765,"BSTAR":0.00073643052,"MEAN_MOTION_DOT":0.00199656,"MEAN_MOTION_DDOT":0},{"OBJECT_NAME":"STARLINK-30187","OBJECT_ID":"2023-107S","EPOCH":"2026-03-09T22:00:01.999584","MEAN_MOTION":15.81935675,"ECCENTRICITY":0.00164325,"INCLINATION":42.9929,"RA_OF_ASC_NODE":303.0232,"ARG_OF_PERICENTER":259.4577,"MEAN_ANOMALY":8.6945,"EPHEMERIS_TYPE":0,"CLASSIFICATION_TYPE":"U","NORAD_CAT_ID":57473,"ELEMENT_SET_NO":999,"REV_AT_EPOCH":588,"BSTAR":0.0026192833,"MEAN_MOTION_DOT":0.00592286,"MEAN_MOTION_DDOT":0}]
